ONEWEB-0201             
1 48241U 21031AH  21312.15700062  .00000089  00000-0  20677-3 0  9998
2 48241  87.9039 264.0362 0001857  78.6616 281.4723 13.14500300 27402
ONEWEB-0207             
1 48242U 21031AJ  21312.58833639 -.00000160  00000-0 -46578-3 0  9993
2 48242  87.9058 263.9594 0001509  72.2759 287.8536 13.14504444 27372
ONEWEB-0208             
1 48243U 21031AK  21312.26059395  .00000071  00000-0  15740-3 0  9994
2 48243  87.9027 264.0045 0002467  71.4782 288.6615 13.14504870 27340
ONEWEB-0200             
1 48244U 21031AL  21312.14854150 -.00000040  00000-0 -14217-3 0  9990
2 48244  87.9017 264.0042 0002488  69.7359 290.4038 13.14504190 27255
ONEWEB-0217             
1 48245U 21031AM  21312.62216746  .00000188  00000-0  47177-3 0  9999
2 48245  87.9061 263.9448 0002494  70.7723 289.3677 13.14504339 27269
ONEWEB-0211             
1 48767U 21045A   21313.00002315 -.00021931  00000-0 -58420-1 0  9993
2 48767  87.9171 233.4606 0002292  79.7316 277.2418 13.15559539  3278
ONEWEB-0223             
1 48768U 21045B   21313.00002315 -.00024219  00000-0 -64530-1 0  9995
2 48768  87.9179 233.4663 0002417  84.3921 172.5191 13.15555982  3287
ONEWEB-0230             
1 48769U 21045C   21313.00002315 -.00022071  00000-0 -58799-1 0  9990
2 48769  87.9123 233.4076 0002317  89.5550 297.5050 13.15553275  3284
ONEWEB-0237             
1 48770U 21045D   21313.00002315 -.00023234  00000-0 -61896-1 0  9996
2 48770  87.9107 233.3155 0002275  92.4303 344.5713 13.15561896  3284
ONEWEB-0235             
1 48771U 21045E   21313.00002315 -.00025262  00000-0 -67318-1 0  9995
2 48771  87.9115 233.3082 0002676  98.0048 108.9667 13.15553335  3285
ONEWEB-0242             
1 48772U 21045F   21313.00002315 -.00024796  00000-0 -66075-1 0  9996
2 48772  87.9127 233.4669 0002271  82.7318 154.2047 13.15552227  3287
ONEWEB-0241             
1 48773U 21045G   21313.00002315 -.00022985  00000-0 -61234-1 0  9997
2 48773  87.9109 233.4761 0002625  73.7087 223.2005 13.15556295  3287
ONEWEB-0243             
1 48774U 21045H   21313.00002315 -.00025245  00000-0 -67264-1 0  9999
2 48774  87.9123 233.3524 0002095  95.1676  51.8080 13.15560490  3294
ONEWEB-0222             
1 48775U 21045J   21313.00002315 -.00025473  00000-0 -67875-1 0  9991
2 48775  87.9111 233.3926 0002270  81.6515 115.4035 13.15558320  3279
ONEWEB-0244             
1 48776U 21045K   21313.00002315 -.00022958  00000-0 -50144-1 0  9998
2 48776  87.9367 233.4904 0002404 106.0343 198.1649 13.28927727  3353
ONEWEB-0247             
1 48777U 21045L   21312.51900634  .00000179  00000-0  44135-3 0  9999
2 48777  87.9071 233.5335 0002596  95.0732 265.0694 13.15548407 23307
ONEWEB-0245             
1 48778U 21045M   21312.91667824 -.00045258  00000-0 -12081+0 0  9995
2 48778  87.9127 233.3257 0002271  69.4058  33.1584 13.15569358  3349
ONEWEB-0229             
1 48779U 21045N   21312.91667824 -.00046100  00000-0 -12306+0 0  9993
2 48779  87.9120 233.3264 0002386  82.8205  49.6616 13.15573901  3281
ONEWEB-0228             
1 48780U 21045P   21312.91667824 -.00043912  00000-0 -11719+0 0  9990
2 48780  87.9105 233.3908 0001972  83.9496 338.5088 13.15575027  3289
ONEWEB-0232             
1 48781U 21045Q   21312.91667824 -.00044943  00000-0 -11996+0 0  9993
2 48781  87.9151 233.4766 0002343  71.4135  21.0516 13.15572844  3283
ONEWEB-0231             
1 48782U 21045R   21312.91667824 -.00046468  00000-0 -12406+0 0  9995
2 48782  87.9133 233.4448 0002308  91.0689 101.3694 13.15566531  3289
ONEWEB-0234             
1 48783U 21045S   21312.91667824 -.00044256  00000-0 -11812+0 0  9999
2 48783  87.9144 233.4512 0001980  67.8859   4.5797 13.15570640  3283
ONEWEB-0238             
1 48784U 21045T   21312.91667824 -.00042745  00000-0 -11406+0 0  9990
2 48784  87.9146 233.4143 0002203  92.6875 279.8293 13.15576158  3287
ONEWEB-0240             
1 48785U 21045U   21312.91667824 -.00044235  00000-0 -11806+0 0  9991
2 48785  87.9162 233.4353 0002752  75.9606 196.4903 13.15573034  3275
ONEWEB-0246             
1 48786U 21045V   21312.91667824 -.00043568  00000-0 -11627+0 0  9991
2 48786  87.9128 233.4754 0002232  89.1888 203.3009 13.15573690  3278
ONEWEB-0210             
1 48787U 21045W   21312.91667824 -.00043612  00000-0 -11639+0 0  9995
2 48787  87.9123 233.4737 0002093 106.4790 306.0407 13.15572935  3280
ONEWEB-0214             
1 48788U 21045X   21312.91667824 -.00042637  00000-0 -11377+0 0  9991
2 48788  87.9131 233.4750 0001844 112.8840 249.5639 13.15576997  3285
ONEWEB-0221             
1 48789U 21045Y   21312.91667824 -.00042691  00000-0 -11392+0 0  9999
2 48789  87.9149 233.4769 0002101  82.8556 249.5980 13.15574583  3279
ONEWEB-0213             
1 48790U 21045Z   21312.91667824 -.00043078  00000-0 -11495+0 0  9995
2 48790  87.9137 233.3622 0002285  89.0464 303.4806 13.15578507  3283
ONEWEB-0212             
1 48791U 21045AA  21312.91667824 -.00045851  00000-0 -12241+0 0  9997
2 48791  87.9125 233.4004 0001624  64.5438  57.8992 13.15564877  3282
ONEWEB-0227             
1 48792U 21045AB  21312.91667824 -.00046451  00000-0 -12401+0 0  9993
2 48792  87.9145 233.3455 0002251  76.6061  75.9225 13.15568609  3273
ONEWEB-0226             
1 48793U 21045AC  21312.91667824 -.00046566  00000-0 -12432+0 0  9995
2 48793  87.9116 233.3555 0002230 102.7372  79.6997 13.15567627  3283
ONEWEB-0224             
1 48794U 21045AD  21312.91667824 -.00042624  00000-0 -11374+0 0  9991
2 48794  87.9166 233.4825 0002025  59.0256 283.4213 13.15573977  3277
ONEWEB-0233             
1 48795U 21045AE  21312.91667824 -.00044946  00000-0 -11997+0 0  9992
2 48795  87.9124 233.3421 0002241  71.5828 180.8678 13.15570931  3279
ONEWEB-0190             
1 48796U 21045AF  21312.91667824 -.00042875  00000-0 -11441+0 0  9996
2 48796  87.9138 233.3219 0003023  97.4267 285.0530 13.15575124  3288
ONEWEB-0236             
1 48797U 21045AG  21312.91667824 -.00043279  00000-0 -11550+0 0  9997
2 48797  87.9164 233.4803 0001993  76.9713 225.4704 13.15572301  3274
ONEWEB-0248             
1 48798U 21045AH  21312.91667824 -.00045259  00000-0 -12081+0 0  9998
2 48798  87.9148 233.4929 0003048  79.7277 162.7569 13.15569866  3279
ONEWEB-0225             
1 48799U 21045AJ  21312.91667824 -.00046301  00000-0 -12360+0 0  9998
2 48799  87.9112 233.4338 0002688  86.7599  55.7117 13.15573042  3281
ONEWEB-0215             
1 48800U 21045AK  21312.91667824 -.00043888  00000-0 -11713+0 0  9999
2 48800  87.9130 233.4752 0003088  84.9364 197.5452 13.15572608  3272
ONEWEB-0216             
1 48801U 21045AL  21312.91667824 -.00045602  00000-0 -12173+0 0  9997
2 48801  87.9158 233.4135 0001624  91.8208 140.6066 13.15571273  3284
ONEWEB-0239             
1 48802U 21045AM  21312.91667824 -.00046117  00000-0 -12311+0 0  9994
2 48802  87.9105 233.4456 0002974  86.6455 125.8240 13.15571124  3282
ONEWEB-0249             
1 48967U 21060A   21312.91667824 -.00021981  00000-0 -57661-1 0  9994
2 48967  87.9169 203.2140 0001530  83.9288 249.1261 13.16605534  3276
ONEWEB-0250             
1 48968U 21060B   21312.91667824 -.00022433  00000-0 -58851-1 0  9990
2 48968  87.9150 203.2256 0002156  77.6196 233.5693 13.16602759  3270
ONEWEB-0251             
1 48969U 21060C   21312.91667824 -.00006256  00000-0 -19391-3 0  9994
2 48969  87.4255 191.7250 0011695 136.7485 298.4924 15.33642666  3609
ONEWEB-0252             
1 48970U 21060D   21312.91667824 -.00025566  00000-0 -67089-1 0  9996
2 48970  87.9154 203.2508 0001819  90.9874  89.3449 13.16602321  3285
ONEWEB-0253             
1 48971U 21060E   21312.91667824 -.00025002  00000-0 -65605-1 0  9994
2 48971  87.9161 203.2516 0002140  91.0037 132.9596 13.16603234  3275
ONEWEB-0254             
1 48972U 21060F   21312.91667824 -.00025471  00000-0 -66842-1 0  9999
2 48972  87.9162 203.2127 0002076  91.3439  99.9419 13.16600408  3289
ONEWEB-0255             
1 48973U 21060G   21312.91667824 -.00021859  00000-0 -57340-1 0  9999
2 48973  87.9198 203.2498 0002082  86.6557 279.0607 13.16605860  3271
ONEWEB-0256             
1 48974U 21060H   21312.91667824 -.00024420  00000-0 -64075-1 0  9990
2 48974  87.9160 203.2476 0001236  78.3095 167.4781 13.16603301  3273
ONEWEB-0257             
1 48975U 21060J   21312.91667824 -.00023897  00000-0 -62697-1 0  9996
2 48975  87.9178 203.2674 0001692  90.7406   2.3543 13.16604657  3282
ONEWEB-0258             
1 48976U 21060K   21312.91667824 -.00023520  00000-0 -61702-1 0  9996
2 48976  87.9186 203.2491 0001805  77.7116   4.4168 13.16609614  3282
ONEWEB-0259             
1 48977U 21060L   21312.91667824 -.00024204  00000-0 -63504-1 0  9999
2 48977  87.9168 203.2322 0002376  85.0487  18.8477 13.16606228  3283
ONEWEB-0260             
1 48978U 21060M   21312.91667824 -.00025099  00000-0 -65862-1 0  9992
2 48978  87.9170 203.2529 0001217 116.3185  20.4067 13.16601318  3281
ONEWEB-0261             
1 48979U 21060N   21312.91667824 -.00022743  00000-0 -59665-1 0  9990
2 48979  87.9171 203.2456 0001811  93.2636 207.0477 13.16603244  3273
ONEWEB-0262             
1 48980U 21060P   21312.91667824 -.00021981  00000-0 -57661-1 0  9999
2 48980  87.9167 203.1767 0002105  94.7407 292.8575 13.16606499  3279
ONEWEB-0263             
1 48981U 21060Q   21312.91667824 -.00024627  00000-0 -64621-1 0  9994
2 48981  87.9154 203.1588 0002490  91.0177 143.8314 13.16601501  3273
ONEWEB-0264             
1 48982U 21060R   21312.91667824 -.00050930  00000-0 -13404+0 0  9992
2 48982  87.9212 203.0778 0001694  80.7101 339.6275 13.16574874  3280
ONEWEB-0265             
1 48983U 21060S   21312.91667824 -.00003015  00000-0 -70626-4 0  9999
2 48983  87.4014 190.9449 0008904 122.1009 335.6244 15.42574574  3622
ONEWEB-0266             
1 48984U 21060T   21312.91667824 -.00022153  00000-0 -58116-1 0  9991
2 48984  87.9152 203.1981 0001709  73.1445 248.9757 13.16601994  3276
